{
  "type": "FeatureCollection",
  "features": [
    {
      "type": "Feature",
      "properties": {
        "norad_id": 34036,
        "name": "COSMOS 2251 DEB",
        "group": "cosmos-2251-debris",
        "lat": 6.994233798095302,
        "lon": 123.69414083701467,
        "alt_km": 585.8049257636567,
        "timestamp": "2025-12-26T09:30:54.033479+00:00",
        "meta_object_name": "COSMOS 2251 DEB",
        "meta_object_id": "1993-036HX",
        "meta_epoch": "2025-12-26T03:03:46.607328",
        "meta_mean_motion": 14.96048397,
        "meta_eccentricity": 0.0009478,
        "meta_inclination": 74.0197,
        "meta_ra_of_asc_node": 122.2227,
        "meta_arg_of_pericenter": 147.7434,
        "meta_mean_anomaly": 212.4333,
        "meta_ephemeris_type": 0,
        "meta_classification_type": "U",
        "meta_norad_cat_id": 34036,
        "meta_element_set_no": 999,
        "meta_rev_at_epoch": 88770,
        "meta_bstar": 0.0038364,
        "meta_mean_motion_dot": 0.00043366,
        "meta_mean_motion_ddot": 0,
        "tle_line1": "1 34036U 93036HX  25360.12762277  .00043366  00000+0  38364-2 0  9994",
        "tle_line2": "2 34036  74.0197 122.2227 0009478 147.7434 212.4333 14.96048397887701"
      },
      "geometry": {
        "type": "Point",
        "coordinates": [
          123.69414083701467,
          6.994233798095302
        ]
      }
    },
    {
      "type": "Feature",
      "properties": {
        "norad_id": 34037,
        "name": "COSMOS 2251 DEB",
        "group": "cosmos-2251-debris",
        "lat": -39.020226918952154,
        "lon": 12.047268839705376,
        "alt_km": 795.9128500050701,
        "timestamp": "2025-12-26T09:30:54.033490+00:00",
        "meta_object_name": "COSMOS 2251 DEB",
        "meta_object_id": "1993-036HY",
        "meta_epoch": "2025-12-26T03:00:40.800672",
        "meta_mean_motion": 14.34697586,
        "meta_eccentricity": 0.005182,
        "meta_inclination": 74.0508,
        "meta_ra_of_asc_node": 25.9427,
        "meta_arg_of_pericenter": 71.7733,
        "meta_mean_anomaly": 288.905,
        "meta_ephemeris_type": 0,
        "meta_classification_type": "U",
        "meta_norad_cat_id": 34037,
        "meta_element_set_no": 999,
        "meta_rev_at_epoch": 87909,
        "meta_bstar": 0.00041174,
        "meta_mean_motion_dot": 1.158e-05,
        "meta_mean_motion_ddot": 0,
        "tle_line1": "1 34037U 93036HY  25360.12547223  .00001158  00000+0  41174-3 0  9994",
        "tle_line2": "2 34037  74.0508  25.9427 0051820  71.7733 288.9050 14.34697586879094"
      },
      "geometry": {
        "type": "Point",
        "coordinates": [
          12.047268839705376,
          -39.020226918952154
        ]
      }
    },
    {
      "type": "Feature",
      "properties": {
        "norad_id": 34040,
        "name": "COSMOS 2251 DEB",
        "group": "cosmos-2251-debris",
        "lat": -11.678746268481952,
        "lon": -133.29336178285246,
        "alt_km": 1249.407176939164,
        "timestamp": "2025-12-26T09:30:54.033502+00:00",
        "meta_object_name": "COSMOS 2251 DEB",
        "meta_object_id": "1993-036JB",
        "meta_epoch": "2025-12-26T03:18:28.708128",
        "meta_mean_motion": 13.68398113,
        "meta_eccentricity": 0.034348,
        "meta_inclination": 73.9554,
        "meta_ra_of_asc_node": 43.7238,
        "meta_arg_of_pericenter": 354.3857,
        "meta_mean_anomaly": 5.3445,
        "meta_ephemeris_type": 0,
        "meta_classification_type": "U",
        "meta_norad_cat_id": 34040,
        "meta_element_set_no": 999,
        "meta_rev_at_epoch": 83783,
        "meta_bstar": 0.0007975,
        "meta_mean_motion_dot": 1.006e-05,
        "meta_mean_motion_ddot": 0,
        "tle_line1": "1 34040U 93036JB  25360.13783227  .00001006  00000+0  79750-3 0  9998",
        "tle_line2": "2 34040  73.9554  43.7238 0343480 354.3857   5.3445 13.68398113837833"
      },
      "geometry": {
        "type": "Point",
        "coordinates": [
          -133.29336178285246,
          -11.678746268481952
        ]
      }
    },
    {
      "type": "Feature",
      "properties": {
        "norad_id": 34045,
        "name": "COSMOS 2251 DEB",
        "group": "cosmos-2251-debris",
        "lat": -24.77168042931585,
        "lon": -81.74530143526891,
        "alt_km": 767.309947738614,
        "timestamp": "2025-12-26T09:30:54.033513+00:00",
        "meta_object_name": "COSMOS 2251 DEB",
        "meta_object_id": "1993-036JG",
        "meta_epoch": "2025-12-26T04:56:08.255904",
        "meta_mean_motion": 14.34076289,
        "meta_eccentricity": 0.0026225,
        "meta_inclination": 74.0396,
        "meta_ra_of_asc_node": 286.1925,
        "meta_arg_of_pericenter": 6.0815,
        "meta_mean_anomaly": 63.6633,
        "meta_ephemeris_type": 0,
        "meta_classification_type": "U",
        "meta_norad_cat_id": 34045,
        "meta_element_set_no": 999,
        "meta_rev_at_epoch": 88226,
        "meta_bstar": 0.00010119,
        "meta_mean_motion_dot": 2.58e-06,
        "meta_mean_motion_ddot": 0,
        "tle_line1": "1 34045U 93036JG  25360.20565111  .00000258  00000+0  10119-3 0  9993",
        "tle_line2": "2 34045  74.0396 286.1925 0026225   6.0815  63.6633 14.34076289882264"
      },
      "geometry": {
        "type": "Point",
        "coordinates": [
          -81.74530143526891,
          -24.77168042931585
        ]
      }
    },
    {
      "type": "Feature",
      "properties": {
        "norad_id": 34046,
        "name": "COSMOS 2251 DEB",
        "group": "cosmos-2251-debris",
        "lat": -33.944028838780355,
        "lon": 176.07748987474213,
        "alt_km": 788.988233135593,
        "timestamp": "2025-12-26T09:30:54.033524+00:00",
        "meta_object_name": "COSMOS 2251 DEB",
        "meta_object_id": "1993-036JH",
        "meta_epoch": "2025-12-25T22:40:20.639712",
        "meta_mean_motion": 14.46580903,
        "meta_eccentricity": 0.0074571,
        "meta_inclination": 74.0399,
        "meta_ra_of_asc_node": 345.8148,
        "meta_arg_of_pericenter": 65.3438,
        "meta_mean_anomaly": 317.8928,
        "meta_ephemeris_type": 0,
        "meta_classification_type": "U",
        "meta_norad_cat_id": 34046,
        "meta_element_set_no": 999,
        "meta_rev_at_epoch": 88017,
        "meta_bstar": 0.0013151,
        "meta_mean_motion_dot": 4.884e-05,
        "meta_mean_motion_ddot": 0,
        "tle_line1": "1 34046U 93036JH  25359.94468333  .00004884  00000+0  13151-2 0  9998",
        "tle_line2": "2 34046  74.0399 345.8148 0074571  65.3438 317.8928 14.46580903880179"
      },
      "geometry": {
        "type": "Point",
        "coordinates": [
          176.07748987474213,
          -33.944028838780355
        ]
      }
    },
    {
      "type": "Feature",
      "properties": {
        "norad_id": 34050,
        "name": "COSMOS 2251 DEB",
        "group": "cosmos-2251-debris",
        "lat": 36.93830829092878,
        "lon": 154.24085730479212,
        "alt_km": 910.8494005368102,
        "timestamp": "2025-12-26T09:30:54.033535+00:00",
        "meta_object_name": "COSMOS 2251 DEB",
        "meta_object_id": "1993-036JM",
        "meta_epoch": "2025-12-25T11:04:48.351072",
        "meta_mean_motion": 13.96210406,
        "meta_eccentricity": 0.0214837,
        "meta_inclination": 74.0883,
        "meta_ra_of_asc_node": 348.2285,
        "meta_arg_of_pericenter": 49.3018,
        "meta_mean_anomaly": 72.7253,
        "meta_ephemeris_type": 0,
        "meta_classification_type": "U",
        "meta_norad_cat_id": 34050,
        "meta_element_set_no": 999,
        "meta_rev_at_epoch": 85609,
        "meta_bstar": 0.0007946,
        "meta_mean_motion_dot": 1.304e-05,
        "meta_mean_motion_ddot": 0,
        "tle_line1": "1 34050U 93036JM  25359.46167073  .00001304  00000+0  79460-3 0  9997",
        "tle_line2": "2 34050  74.0883 348.2285 0214837  49.3018  72.7253 13.96210406856092"
      },
      "geometry": {
        "type": "Point",
        "coordinates": [
          154.24085730479212,
          36.93830829092878
        ]
      }
    },
    {
      "type": "Feature",
      "properties": {
        "norad_id": 34053,
        "name": "COSMOS 2251 DEB",
        "group": "cosmos-2251-debris",
        "lat": -39.59679888399062,
        "lon": -153.71004802834105,
        "alt_km": 863.0682447177069,
        "timestamp": "2025-12-26T09:30:54.033545+00:00",
        "meta_object_name": "COSMOS 2251 DEB",
        "meta_object_id": "1993-036JQ",
        "meta_epoch": "2025-12-26T00:48:30.650112",
        "meta_mean_motion": 13.49180392,
        "meta_eccentricity": 0.0422922,
        "meta_inclination": 73.8426,
        "meta_ra_of_asc_node": 220.7488,
        "meta_arg_of_pericenter": 7.1165,
        "meta_mean_anomaly": 353.5688,
        "meta_ephemeris_type": 0,
        "meta_classification_type": "U",
        "meta_norad_cat_id": 34053,
        "meta_element_set_no": 999,
        "meta_rev_at_epoch": 82863,
        "meta_bstar": 0.00052813,
        "meta_mean_motion_dot": 5.55e-06,
        "meta_mean_motion_ddot": 0,
        "tle_line1": "1 34053U 93036JQ  25360.03368808  .00000555  00000+0  52813-3 0  9994",
        "tle_line2": "2 34053  73.8426 220.7488 0422922   7.1165 353.5688 13.49180392828634"
      },
      "geometry": {
        "type": "Point",
        "coordinates": [
          -153.71004802834105,
          -39.59679888399062
        ]
      }
    }
  ]
}